[{"OBJECT_NAME":"STARLINK-31917","OBJECT_ID":"2024-084R","EPOCH":"2026-03-09T22:56:13.750944","MEAN_MOTION":15.27589228,"ECCENTRICITY":0.0001287,"INCLINATION":42.9983,"RA_OF_ASC_NODE":40.3033,"ARG_OF_PERICENTER":280.0245,"MEAN_ANOMALY":80.0461,"EPHEMERIS_TYPE":0,"CLASSIFICATION_TYPE":"U","NORAD_CAT_ID":59669,"ELEMENT_SET_NO":999,"REV_AT_EPOCH":10441,"BSTAR":0.0001271893,"MEAN_MOTION_DOT":3.24e-5,"MEAN_MOTION_DDOT":0},{"OBJECT_NAME":"HAWK-11A","OBJECT_ID":"2024-247F","EPOCH":"2026-03-09T12:17:43.893312","MEAN_MOTION":15.28849427,"ECCENTRICITY":0.00054663,"INCLINATION":44.9941,"RA_OF_ASC_NODE":114.3328,"ARG_OF_PERICENTER":327.3713,"MEAN_ANOMALY":32.6832,"EPHEMERIS_TYPE":0,"CLASSIFICATION_TYPE":"U","NORAD_CAT_ID":62382,"ELEMENT_SET_NO":999,"REV_AT_EPOCH":6774,"BSTAR":0.00034106017,"MEAN_MOTION_DOT":9.457e-5,"MEAN_MOTION_DDOT":0}]
